CCSDS_OMM_VERS = 2.0
CREATION_DATE  = 
ORIGINATOR     = 

OBJECT_NAME    = UNKNOWN
OBJECT_ID      = 
CENTER_NAME    = EARTH
REF_FRAME      = TEME
TIME_SYSTEM    = UTC
MEAN_ELEMENT_THEORY = SGP/SGP4

EPOCH          = 2026-03-07T03:59:02.984928
MEAN_MOTION    = 12.62653678
ECCENTRICITY   = .0596036
INCLINATION    = 67.1624
RA_OF_ASC_NODE = 338.5521
ARG_OF_PERICENTER = 151.1781
MEAN_ANOMALY   = 212.3584

EPHEMERIS_TYPE = 0
CLASSIFICATION_TYPE = U
NORAD_CAT_ID   = 81439
ELEMENT_SET_NO = 999
REV_AT_EPOCH   = 27255
BSTAR          = .15785E-2
MEAN_MOTION_DOT = .513E-5
MEAN_MOTION_DDOT = 0

CCSDS_OMM_VERS = 2.0
CREATION_DATE  = 
ORIGINATOR     = 

OBJECT_NAME    = UNKNOWN
OBJECT_ID      = 
CENTER_NAME    = EARTH
REF_FRAME      = TEME
TIME_SYSTEM    = UTC
MEAN_ELEMENT_THEORY = SGP/SGP4

EPOCH          = 2026-03-06T12:24:37.619712
MEAN_MOTION    = 15.17099882
ECCENTRICITY   = .002332
INCLINATION    = 66.7879
RA_OF_ASC_NODE = 104.8177
ARG_OF_PERICENTER = 18.4610
MEAN_ANOMALY   = 341.7374

EPHEMERIS_TYPE = 0
CLASSIFICATION_TYPE = U
NORAD_CAT_ID   = 81449
ELEMENT_SET_NO = 999
REV_AT_EPOCH   = 64618
BSTAR          = .63799E-2
MEAN_MOTION_DOT = .129882E-2
MEAN_MOTION_DDOT = 0

CCSDS_OMM_VERS = 2.0
CREATION_DATE  = 
ORIGINATOR     = 

OBJECT_NAME    = UNKNOWN
OBJECT_ID      = 
CENTER_NAME    = EARTH
REF_FRAME      = TEME
TIME_SYSTEM    = UTC
MEAN_ELEMENT_THEORY = SGP/SGP4

EPOCH          = 2026-03-07T05:42:39.788928
MEAN_MOTION    = 14.29031937
ECCENTRICITY   = .0145558
INCLINATION    = 98.9512
RA_OF_ASC_NODE = 345.3563
ARG_OF_PERICENTER = 112.5481
MEAN_ANOMALY   = 40.4041

EPHEMERIS_TYPE = 0
CLASSIFICATION_TYPE = U
NORAD_CAT_ID   = 81478
ELEMENT_SET_NO = 999
REV_AT_EPOCH   = 63500
BSTAR          = .16836E-2
MEAN_MOTION_DOT = .4732E-4
MEAN_MOTION_DDOT = 0

CCSDS_OMM_VERS = 2.0
CREATION_DATE  = 
ORIGINATOR     = 

OBJECT_NAME    = UNKNOWN
OBJECT_ID      = 
CENTER_NAME    = EARTH
REF_FRAME      = TEME
TIME_SYSTEM    = UTC
MEAN_ELEMENT_THEORY = SGP/SGP4

EPOCH          = 2026-03-07T03:29:48.333120
MEAN_MOTION    = 13.56551508
ECCENTRICITY   = .0044652
INCLINATION    = 99.9933
RA_OF_ASC_NODE = 305.0388
ARG_OF_PERICENTER = 149.5336
MEAN_ANOMALY   = 3.6043

EPHEMERIS_TYPE = 0
CLASSIFICATION_TYPE = U
NORAD_CAT_ID   = 81488
ELEMENT_SET_NO = 999
REV_AT_EPOCH   = 60807
BSTAR          = .37231E-3
MEAN_MOTION_DOT = .218E-5
MEAN_MOTION_DDOT = 0

CCSDS_OMM_VERS = 2.0
CREATION_DATE  = 
ORIGINATOR     = 

OBJECT_NAME    = UNKNOWN
OBJECT_ID      = 
CENTER_NAME    = EARTH
REF_FRAME      = TEME
TIME_SYSTEM    = UTC
MEAN_ELEMENT_THEORY = SGP/SGP4

EPOCH          = 2026-03-01T23:31:12.157248
MEAN_MOTION    = 13.84808267
ECCENTRICITY   = .0027031
INCLINATION    = 100.2999
RA_OF_ASC_NODE = 328.2356
ARG_OF_PERICENTER = 170.1750
MEAN_ANOMALY   = 255.6004

EPHEMERIS_TYPE = 0
CLASSIFICATION_TYPE = U
NORAD_CAT_ID   = 81497
ELEMENT_SET_NO = 999
REV_AT_EPOCH   = 22726
BSTAR          = .33385E-2
MEAN_MOTION_DOT = .3724E-4
MEAN_MOTION_DDOT = 0

CCSDS_OMM_VERS = 2.0
CREATION_DATE  = 
ORIGINATOR     = 

OBJECT_NAME    = UNKNOWN
OBJECT_ID      = 
CENTER_NAME    = EARTH
REF_FRAME      = TEME
TIME_SYSTEM    = UTC
MEAN_ELEMENT_THEORY = SGP/SGP4

EPOCH          = 2026-03-06T09:44:50.410464
MEAN_MOTION    = 14.47678161
ECCENTRICITY   = .0002728
INCLINATION    = 74.0478
RA_OF_ASC_NODE = 64.7347
ARG_OF_PERICENTER = 235.8602
MEAN_ANOMALY   = 124.2298

EPHEMERIS_TYPE = 0
CLASSIFICATION_TYPE = U
NORAD_CAT_ID   = 81499
ELEMENT_SET_NO = 999
REV_AT_EPOCH   = 49452
BSTAR          = .11323E-2
MEAN_MOTION_DOT = .4153E-4
MEAN_MOTION_DDOT = 0

CCSDS_OMM_VERS = 2.0
CREATION_DATE  = 
ORIGINATOR     = 

OBJECT_NAME    = UNKNOWN
OBJECT_ID      = 
CENTER_NAME    = EARTH
REF_FRAME      = TEME
TIME_SYSTEM    = UTC
MEAN_ELEMENT_THEORY = SGP/SGP4

EPOCH          = 2026-03-07T10:43:48.841248
MEAN_MOTION    = 14.13642361
ECCENTRICITY   = .0233561
INCLINATION    = 98.1901
RA_OF_ASC_NODE = 146.7157
ARG_OF_PERICENTER = 263.3265
MEAN_ANOMALY   = 94.1279

EPHEMERIS_TYPE = 0
CLASSIFICATION_TYPE = U
NORAD_CAT_ID   = 81535
ELEMENT_SET_NO = 999
REV_AT_EPOCH   = 39936
BSTAR          = .57325E-3
MEAN_MOTION_DOT = .1361E-4
MEAN_MOTION_DDOT = 0

CCSDS_OMM_VERS = 2.0
CREATION_DATE  = 
ORIGINATOR     = 

OBJECT_NAME    = UNKNOWN
OBJECT_ID      = 
CENTER_NAME    = EARTH
REF_FRAME      = TEME
TIME_SYSTEM    = UTC
MEAN_ELEMENT_THEORY = SGP/SGP4

EPOCH          = 2026-03-05T08:55:09.905952
MEAN_MOTION    = 12.55976218
ECCENTRICITY   = .0018378
INCLINATION    = 101.9676
RA_OF_ASC_NODE = 291.4387
ARG_OF_PERICENTER = 119.6505
MEAN_ANOMALY   = 62.2506

EPHEMERIS_TYPE = 0
CLASSIFICATION_TYPE = U
NORAD_CAT_ID   = 81536
ELEMENT_SET_NO = 999
REV_AT_EPOCH   = 56218
BSTAR          = .44777E-2
MEAN_MOTION_DOT = .691E-5
MEAN_MOTION_DDOT = 0

CCSDS_OMM_VERS = 2.0
CREATION_DATE  = 
ORIGINATOR     = 

OBJECT_NAME    = UNKNOWN
OBJECT_ID      = 
CENTER_NAME    = EARTH
REF_FRAME      = TEME
TIME_SYSTEM    = UTC
MEAN_ELEMENT_THEORY = SGP/SGP4

EPOCH          = 2026-03-02T08:52:38.100288
MEAN_MOTION    = 14.07156543
ECCENTRICITY   = .0075868
INCLINATION    = 71.0398
RA_OF_ASC_NODE = 304.5004
ARG_OF_PERICENTER = 31.0100
MEAN_ANOMALY   = 329.5464

EPHEMERIS_TYPE = 0
CLASSIFICATION_TYPE = U
NORAD_CAT_ID   = 81537
ELEMENT_SET_NO = 999
REV_AT_EPOCH   = 63166
BSTAR          = .19949E-3
MEAN_MOTION_DOT = .297E-5
MEAN_MOTION_DDOT = 0

CCSDS_OMM_VERS = 2.0
CREATION_DATE  = 
ORIGINATOR     = 

OBJECT_NAME    = UNKNOWN
OBJECT_ID      = 
CENTER_NAME    = EARTH
REF_FRAME      = TEME
TIME_SYSTEM    = UTC
MEAN_ELEMENT_THEORY = SGP/SGP4

EPOCH          = 2026-03-07T06:05:43.686240
MEAN_MOTION    = 13.18325114
ECCENTRICITY   = .0256566
INCLINATION    = 99.0679
RA_OF_ASC_NODE = 346.3232
ARG_OF_PERICENTER = 174.9772
MEAN_ANOMALY   = 185.4012

EPHEMERIS_TYPE = 0
CLASSIFICATION_TYPE = U
NORAD_CAT_ID   = 81552
ELEMENT_SET_NO = 999
REV_AT_EPOCH   = 59038
BSTAR          = .19458E-2
MEAN_MOTION_DOT = .87E-5
MEAN_MOTION_DDOT = 0

CCSDS_OMM_VERS = 2.0
CREATION_DATE  = 
ORIGINATOR     = 

OBJECT_NAME    = UNKNOWN
OBJECT_ID      = 
CENTER_NAME    = EARTH
REF_FRAME      = TEME
TIME_SYSTEM    = UTC
MEAN_ELEMENT_THEORY = SGP/SGP4

EPOCH          = 2026-03-06T13:06:17.053344
MEAN_MOTION    = 13.31539553
ECCENTRICITY   = .0246746
INCLINATION    = 67.2921
RA_OF_ASC_NODE = 99.6646
ARG_OF_PERICENTER = 22.3697
MEAN_ANOMALY   = 129.5716

EPHEMERIS_TYPE = 0
CLASSIFICATION_TYPE = U
NORAD_CAT_ID   = 81599
ELEMENT_SET_NO = 999
REV_AT_EPOCH   = 59623
BSTAR          = .16183E-3
MEAN_MOTION_DOT = .3E-6
MEAN_MOTION_DDOT = 0

CCSDS_OMM_VERS = 2.0
CREATION_DATE  = 
ORIGINATOR     = 

OBJECT_NAME    = UNKNOWN
OBJECT_ID      = 
CENTER_NAME    = EARTH
REF_FRAME      = TEME
TIME_SYSTEM    = UTC
MEAN_ELEMENT_THEORY = SGP/SGP4

EPOCH          = 2026-03-06T03:14:31.265376
MEAN_MOTION    = 12.81426946
ECCENTRICITY   = .0149171
INCLINATION    = 56.4354
RA_OF_ASC_NODE = 337.3034
ARG_OF_PERICENTER = 254.5569
MEAN_ANOMALY   = 103.8838

EPHEMERIS_TYPE = 0
CLASSIFICATION_TYPE = U
NORAD_CAT_ID   = 81605
ELEMENT_SET_NO = 999
REV_AT_EPOCH   = 19689
BSTAR          = -.6199E-2
MEAN_MOTION_DOT = -.1613E-4
MEAN_MOTION_DDOT = 0

